[Satellite]
VERSION=1.1
NAME=RADUGA 2 [-]
NICKNAME=RADUGA 2 [-]
TLE1=1 09416U 76092A   15053.04442079 -.00000197  00000-0  00000+0 0  9995
TLE2=2 09416  12.3460 323.7474 0026137 269.2176  18.3288  1.00254769 87896
